OBJECT_NAME,OBJECT_ID,EPOCH,MEAN_MOTION,ECCENTRICITY,INCLINATION,RA_OF_ASC_NODE,ARG_OF_PERICENTER,MEAN_ANOMALY,EPHEMERIS_TYPE,CLASSIFICATION_TYPE,NORAD_CAT_ID,ELEMENT_SET_NO,REV_AT_EPOCH,BSTAR,MEAN_MOTION_DOT,MEAN_MOTION_DDOT
SL-14 R/B,1990-018B,2026-06-09T04:19:48.483264,14.82210847,.0016942,82.5204,137.5914,146.4288,213.8004,0,U,20511,999,93613,.41629E-4,.356E-5,0
HST,1990-037B,2026-06-07T07:09:32.201568,15.30642118,.0001938,28.4712,148.1547,44.7656,315.3096,0,U,20580,999,78705,.18954E-3,.601E-4,0
SL-16 R/B,1990-046B,2026-06-09T02:26:04.178400,14.15021989,.001401,70.9985,105.9290,173.9045,186.2251,0,U,20625,999,86132,.1813E-3,.304E-5,0
COSMOS 2084,1990-055A,2026-06-08T21:28:42.528288,15.06082531,.0005512,62.7911,24.3931,263.5695,96.4778,0,U,20663,999,95005,.152E-3,.203E-4,0
SL-6 R/B(2),1990-055D,2026-06-09T03:17:40.312896,15.03976623,.0039387,62.7838,302.7687,4.0539,356.0871,0,U,20666,999,95194,.12624E-3,.1573E-4,0
SL-8 R/B,1991-006B,2026-06-09T03:17:02.053248,13.77505320,.0023337,82.9420,102.0222,136.0427,239.7383,0,U,21088,999,77666,.30031E-4,.45E-6,0
OKEAN-3,1991-039A,2026-06-08T18:18:40.696128,15.05290085,.0014582,82.5161,248.5501,27.5909,332.6088,0,U,21397,999,87873,.15289E-3,.2218E-4,0
COSMOS 2151,1991-042A,2026-06-09T02:58:05.578752,15.00414828,.0013752,82.4961,355.4635,108.1313,252.1410,0,U,21422,999,87690,.94356E-4,.1215E-4,0
SL-14 R/B,1991-042B,2026-06-09T04:26:47.829120,14.81897338,.001567,82.4922,134.3996,303.6846,56.2873,0,U,21423,999,86662,.42621E-4,.361E-5,0
ERS-1,1991-050A,2026-06-09T00:46:41.460384,14.39511927,.0030771,98.7798,180.5311,292.1336,67.6586,0,U,21574,999,82887,.89153E-4,.233E-5,0
ARIANE 40 R/B,1991-050F,2026-06-09T01:47:25.915200,14.42952238,.00039,98.1878,208.8072,139.0993,221.0491,0,U,21610,999,83217,.84827E-4,.242E-5,0
INTERCOSMOS 25,1991-086A,2026-06-08T16:38:19.652064,12.12186461,.1484331,82.6054,254.9493,280.7340,63.0552,0,U,21819,999,50771,.11763E-3,.59E-5,0
SL-8 R/B,1992-008B,2026-06-09T04:48:34.903008,13.75974721,.0033426,82.9266,199.7258,237.6920,186.8044,0,U,21876,999,72200,.71917E-4,.85E-6,0
SL-8 R/B,1992-020B,2026-06-09T04:59:36.911904,13.75548091,.003017,82.9305,85.7837,44.2131,65.6383,0,U,21938,999,71371,.35045E-4,.49E-6,0
USA 81,1992-023A,2026-06-09T04:06:59.259744,14.32396024,.0002755,85.0077,78.6335,91.8098,268.3410,0,U,21949,999,10788,.48905E-4,.152E-5,0
COSMOS 2219,1992-076A,2026-06-09T04:44:03.348672,14.14095662,.0016215,71.0575,186.7753,57.2026,303.0656,0,U,22219,999,73131,.30772E-4,.12E-6,0
SL-16 R/B,1992-076B,2026-06-08T23:46:48.537120,14.16871814,.0014497,71.0006,356.0483,309.3614,158.9040,0,U,22220,999,73476,-.79117E-4,-.207E-5,0
COSMOS 2221,1992-080A,2026-06-09T02:46:11.519904,14.96512465,.0012711,82.5033,191.4981,241.9025,118.0913,0,U,22236,999,79446,.10462E-3,.1216E-4,0
SL-16 R/B,1992-093B,2026-06-09T04:28:01.437600,14.15464593,.0004403,71.0200,172.1881,200.1306,159.9644,0,U,22285,999,72610,-.57014E-4,-.159E-5,0
COSMOS 2228,1992-094A,2026-06-09T03:16:36.901344,14.97557027,.0017723,82.5169,149.7542,0.0974,0.0249,0,U,22286,999,78974,.1579E-3,.1874E-4,0
SL-16 R/B,1993-016B,2026-06-09T02:16:20.250912,14.15309184,.0010727,71.0080,23.2050,195.2391,164.8410,0,U,22566,999,71510,.96147E-4,.14E-5,0
COSMOS 2242,1993-024A,2026-06-09T02:12:56.619936,14.96878792,.0016151,82.5178,179.2875,4.0732,356.0619,0,U,22626,999,79406,.12061E-3,.1412E-4,0
SL-16 R/B,1993-059B,2026-06-09T02:10:49.530720,14.17244841,.0015009,70.9882,178.3777,68.0920,292.1798,0,U,22803,999,69248,.14554E-3,.246E-5,0
ARIANE 40 R/B,1993-061H,2026-06-09T02:31:39.794016,14.32904457,.0010978,98.4819,227.1300,20.2194,339.9423,0,U,22830,999,70719,.74664E-4,.161E-5,0
COSMOS 2278,1994-023A,2026-06-08T21:38:20.728320,14.14393410,.0010595,71.0543,344.2615,252.6635,107.3329,0,U,23087,999,65770,.21626E-3,.367E-5,0
SL-16 R/B,1994-023B,2026-06-08T23:27:59.213088,14.15019827,.0003293,70.9995,239.1716,195.1257,164.9767,0,U,23088,999,65900,.1336E-3,.211E-5,0
SL-16 R/B,1994-074B,2026-06-09T02:24:22.005216,14.79495278,.0005144,97.6994,187.1578,287.6505,139.4719,0,U,23343,999,70076,.5398E-4,.354E-5,0
ARIANE 40+ R/B,1995-021B,2026-06-09T04:50:09.148992,14.39828930,.0005939,98.4411,230.3916,219.3843,200.8775,0,U,23561,999,63241,.83529E-4,.219E-5,0
SL-16 R/B,1995-058B,2026-06-08T20:44:48.956064,14.15505141,.0013424,71.0215,348.8333,331.7260,28.3133,0,U,23705,999,58075,.28575E-5,-.42E-6,0
