{"fetched_at":"2026-06-09T10:59:57Z","count":3433,"tles":[{"name":"SL-14 R/B","line1":"1 20511U 90018B   26160.18042226  .00000356  00000+0  41629-4 0  9996","line2":"2 20511  82.5204 137.5914 0016942 146.4288 213.8004 14.82210847936134","category":"Other"},{"name":"SL-16 R/B","line1":"1 20625U 90046B   26160.10143725  .00000304  00000+0  18130-3 0  9994","line2":"2 20625  70.9985 105.9290 0014010 173.9045 186.2251 14.15021989861321","category":"Other"},{"name":"SL-8 R/B","line1":"1 21088U 91006B   26160.13682932  .00000045  00000+0  30031-4 0  9993","line2":"2 21088  82.9420 102.0222 0023337 136.0427 239.7383 13.77505320776666","category":"Other"},{"name":"SL-16 R/B","line1":"1 22566U 93016B   26160.09467883  .00000140  00000+0  96147-4 0  9995","line2":"2 22566  71.0080  23.2050 0010727 195.2391 164.8410 14.15309184715102","category":"Other"},{"name":"COSMOS 2084","line1":"1 20663U 90055A   26159.89493667  .00002030  00000+0  15200-3 0  9996","line2":"2 20663  62.7911  24.3931 0005512 263.5695  96.4778 15.06082531950057","category":"Other"},{"name":"SL-6 R/B(2)","line1":"1 20666U 90055D   26160.13727214  .00001573  00000+0  12624-3 0  9994","line2":"2 20666  62.7838 302.7687 0039387   4.0539 356.0871 15.03976623951940","category":"Other"},{"name":"HST","line1":"1 20580U 90037B   26158.29828937  .00006010  00000+0  18954-3 0  9990","line2":"2 20580  28.4712 148.1547 0001938  44.7656 315.3096 15.30642118787059","category":"Other"},{"name":"ARIANE 40 R/B","line1":"1 22830U 93061H   26160.10532169  .00000161  00000+0  74664-4 0  9994","line2":"2 22830  98.4819 227.1300 0010978  20.2194 339.9423 14.32904457707190","category":"Other"},{"name":"ARIANE 40+ R/B","line1":"1 23561U 95021B   26160.20149478  .00000219  00000+0  83529-4 0  9996","line2":"2 23561  98.4411 230.3916 0005939 219.3843 200.8775 14.39828930632418","category":"Other"},{"name":"SL-16 R/B","line1":"1 23343U 94074B   26160.10025469  .00000354  00000+0  53980-4 0  9991","line2":"2 23343  97.6994 187.1578 0005144 287.6505 139.4719 14.79495278700765","category":"Other"},{"name":"SL-16 R/B","line1":"1 22285U 92093B   26160.18612775 -.00000159  00000+0 -57014-4 0  9991","line2":"2 22285  71.0200 172.1881 0004403 200.1306 159.9644 14.15464593726108","category":"Other"},{"name":"SL-16 R/B","line1":"1 23705U 95058B   26159.86445551 -.00000042  00000+0  28575-5 0  9993","line2":"2 23705  71.0215 348.8333 0013424 331.7260  28.3133 14.15505141580755","category":"Other"},{"name":"SL-8 R/B","line1":"1 21938U 92020B   26160.20806611  .00000049  00000+0  35045-4 0  9998","line2":"2 21938  82.9305  85.7837 0030170  44.2131  65.6383 13.75548091713719","category":"Other"},{"name":"OKEAN-3","line1":"1 21397U 91039A   26159.76297102  .00002218  00000+0  15289-3 0  9991","line2":"2 21397  82.5161 248.5501 0014582  27.5909 332.6088 15.05290085878732","category":"Other"},{"name":"COSMOS 2228","line1":"1 22286U 92094A   26160.13653821  .00001874  00000+0  15790-3 0  9992","line2":"2 22286  82.5169 149.7542 0017723   0.0974   0.0249 14.97557027789742","category":"Other"},{"name":"SL-14 R/B","line1":"1 21423U 91042B   26160.18527580  .00000361  00000+0  42621-4 0  9997","line2":"2 21423  82.4922 134.3996 0015670 303.6846  56.2873 14.81897338866626","category":"Other"},{"name":"USA 81","line1":"1 21949U 92023A   26160.17151921  .00000152  00000+0  48905-4 0  9990","line2":"2 21949  85.0077  78.6335 0002755  91.8098 268.3410 14.32396024107882","category":"Military"},{"name":"COSMOS 2219","line1":"1 22219U 92076A   26160.19726098  .00000012  00000+0  30772-4 0  9992","line2":"2 22219  71.0575 186.7753 0016215  57.2026 303.0656 14.14095662731313","category":"Other"},{"name":"COSMOS 2278","line1":"1 23087U 94023A   26159.90162880  .00000367  00000+0  21626-3 0  9990","line2":"2 23087  71.0543 344.2615 0010595 252.6635 107.3329 14.14393410657706","category":"Other"},{"name":"INTERCOSMOS 25","line1":"1 21819U 91086A   26159.69328301  .00000590  00000+0  11763-3 0  9994","line2":"2 21819  82.6054 254.9493 1484331 280.7340  63.0552 12.12186461507715","category":"Other"},{"name":"ERS-1","line1":"1 21574U 91050A   26160.03242431  .00000233  00000+0  89153-4 0  9995","line2":"2 21574  98.7798 180.5311 0030771 292.1336  67.6586 14.39511927828875","category":"Other"},{"name":"COSMOS 2242","line1":"1 22626U 93024A   26160.09232199  .00001412  00000+0  12061-3 0  9996","line2":"2 22626  82.5178 179.2875 0016151   4.0732 356.0619 14.96878792794067","category":"Other"},{"name":"SL-16 R/B","line1":"1 22220U 92076B   26159.99083955 -.00000207  00000+0 -79117-4 0  9992","line2":"2 22220  71.0006 356.0483 0014497 309.3614 158.9040 14.16871814734769","category":"Other"},{"name":"SL-16 R/B","line1":"1 23088U 94023B   26159.97776867  .00000211  00000+0  13360-3 0  9998","line2":"2 23088  70.9995 239.1716 0003293 195.1257 164.9767 14.15019827659006","category":"Other"},{"name":"SL-16 R/B","line1":"1 22803U 93059B   26160.09085105  .00000246  00000+0  14554-3 0  9997","line2":"2 22803  70.9882 178.3777 0015009  68.0920 292.1798 14.17244841692484","category":"Other"},{"name":"SL-8 R/B","line1":"1 21876U 92008B   26160.20040397  .00000085  00000+0  71917-4 0  9994","line2":"2 21876  82.9266 199.7258 0033426 237.6920 186.8044 13.75974721722005","category":"Other"},{"name":"ARIANE 40 R/B","line1":"1 21610U 91050F   26160.07460550  .00000242  00000+0  84827-4 0  9997","line2":"2 21610  98.1878 208.8072 0003900 139.0993 221.0491 14.42952238832176","category":"Other"},{"name":"COSMOS 2221","line1":"1 22236U 92080A   26160.11541111  .00001216  00000+0  10462-3 0  9999","line2":"2 22236  82.5033 191.4981 0012711 241.9025 118.0913 14.96512465794462","category":"Other"},{"name":"COSMOS 2151","line1":"1 21422U 91042A   26160.12367568  .00001215  00000+0  94356-4 0  9999","line2":"2 21422  82.4961 355.4635 0013752 108.1313 252.1410 15.00414828876907","category":"Other"}]}